MEAN_MOTION;ECCENTRICITY;INCLINATION;RA_OF_ASC_NODE;ARG_OF_PERICENTER;MEAN_ANOMALY;BSTAR;MEAN_MOTION_DOT;MEAN_MOTION_DDOT;TYPE
14.38864796;0.0007895;45.0166;86.1701;249.8398;110.1601;6.2122E-5;5.0E-7;0;Orbcomm
14.38865055;0.00079;45.0167;83.2039;252.7032;107.2952;6.1479E-5;4.8E-7;0;Orbcomm
14.38865503;0.0007912;45.0168;78.5899;257.173;102.8234;6.3764E-5;5.5E-7;0;Orbcomm
14.38865772;0.0007922;45.017;75.2941;260.3426;99.6528;6.3836E-5;5.6E-7;0;Orbcomm
14.38865911;0.0007918;45.017;73.9759;261.6408;98.3543;6.593E-5;6.2E-7;0;Orbcomm
14.38866344;0.0007913;45.0171;69.362;266.1741;93.8203;6.9757E-5;7.4E-7;0;Orbcomm
14.38866702;0.0007912;45.0173;65.4071;269.9352;90.059;7.0418E-5;7.6E-7;0;Orbcomm
14.38867013;0.0007906;45.0173;61.7818;273.3914;86.603;6.7962E-5;6.8E-7;0;Orbcomm
14.38867408;0.0007885;45.0174;57.4974;277.5883;82.407;6.6248E-5;6.3E-7;0;Orbcomm
14.3886759;0.0007877;45.0175;55.52;279.3353;80.6605;6.5244E-5;6.0E-7;0;Orbcomm
14.38868253;0.000782;45.0177;46.6217;287.9103;72.0893;6.1593E-5;4.9E-7;0;Orbcomm
14.38868484;0.0007797;45.0178;43.3259;291.1007;68.9007;6.2169E-5;5.0E-7;0;Orbcomm
14.38868608;0.000777;45.0179;41.0191;293.3615;66.6416;6.0916E-5;4.7E-7;0;Orbcomm
14.38868835;0.0007746;45.0179;38.3825;295.8645;64.1405;6.3172E-5;5.4E-7;0;Orbcomm
14.3886902;0.0007704;45.0181;34.7573;299.3881;60.6198;5.8791E-5;4.0E-7;0;Orbcomm
14.38869086;0.0007688;45.0181;33.7686;300.3301;59.6787;5.8042E-5;3.8E-7;0;Orbcomm
14.38869227;0.0007657;45.0181;32.1208;301.9793;58.0311;5.9055E-5;4.1E-7;0;Orbcomm
14.38869445;0.0007627;45.0182;29.1547;304.8943;55.1188;5.6626E-5;3.3E-7;0;Orbcomm
14.38869552;0.0007603;45.0182;27.5071;306.5438;53.4711;5.5311E-5;2.9E-7;0;Orbcomm
14.38869931;0.0007563;45.0183;24.2114;309.7589;50.2593;6.1083E-5;4.7E-7;0;Orbcomm
14.38870016;0.0007547;45.0183;23.2229;310.7559;49.2635;6.2094E-5;5.0E-7;0;Orbcomm
14.38870056;0.000754;45.0183;22.8933;311.1099;48.9099;6.3016E-5;5.3E-7;0;Orbcomm
14.38870333;0.0007495;45.0184;19.5977;314.3223;45.7011;6.4082E-5;5.6E-7;0;Orbcomm
14.3887081;0.0007409;45.0184;14.6545;319.3601;40.6695;6.9755E-5;7.4E-7;0;Orbcomm
14.38870907;0.0007389;45.0184;13.3363;320.6493;39.3818;6.9836E-5;7.4E-7;0;Orbcomm
14.38871172;0.000733;45.0184;10.0406;323.9021;36.1332;6.7842E-5;6.8E-7;0;Orbcomm
14.38871324;0.0007306;45.0183;8.3929;325.5395;34.498;6.765E-5;6.7E-7;0;Orbcomm
14.38871611;0.0007254;45.0183;5.4268;328.4941;31.5473;6.7296E-5;6.6E-7;0;Orbcomm
14.38871667;0.0007234;45.0183;4.4382;329.5471;30.4957;6.6002E-5;6.2E-7;0;Orbcomm
14.38872081;0.0007143;45.0183;359.4948;334.6293;25.4204;6.4235E-5;5.7E-7;0;Orbcomm
14.38872621;0.0007044;45.0182;354.2218;340.072;19.9853;6.9736E-5;7.4E-7;0;Orbcomm
14.38872721;0.0007024;45.0182;352.9036;341.391;18.6681;6.968E-5;7.4E-7;0;Orbcomm
14.3887315;0.0006948;45.0182;349.2784;345.2397;14.8248;7.6268E-5;9.4E-7;0;Orbcomm
14.38873592;0.0006857;45.0181;344.9942;349.8237;10.2472;7.9108E-5;1.03E-6;0;Orbcomm
14.38873896;0.00068;45.018;342.028;352.9149;7.1603;7.8221E-5;1.0E-6;0;Orbcomm
14.38873904;0.0006786;45.0181;341.6985;353.3078;6.768;7.7171E-5;9.7E-7;0;Orbcomm
14.38874358;0.0006692;45.018;337.0846;358.2835;1.799;7.3827E-5;8.7E-7;0;Orbcomm
14.38874494;0.0006661;45.0179;335.7664;359.7686;0.3159;7.3459E-5;8.5E-7;0;Orbcomm
14.38874927;0.0006573;45.0178;331.4821;4.4791;355.6115;7.2845E-5;8.3E-7;0;Orbcomm
14.38875258;0.0006504;45.0177;328.1863;8.0195;352.0757;7.4131E-5;8.7E-7;0;Orbcomm
14.38875407;0.0006483;45.0177;326.8681;9.5152;350.5818;7.6321E-5;9.4E-7;0;Orbcomm
14.38875957;0.0006384;45.0175;321.9246;15.0885;345.0154;8.1409E-5;1.1E-6;0;Orbcomm
14.38876353;0.0006322;45.0173;318.9584;18.3914;341.7162;8.5232E-5;1.22E-6;0;Orbcomm
14.38876786;0.0006249;45.0172;315.0035;22.9243;337.1884;8.5388E-5;1.22E-6;0;Orbcomm
14.38876963;0.0006224;45.0171;313.3556;24.8332;335.2816;8.4056E-5;1.18E-6;0;Orbcomm
14.38877464;0.0006139;45.017;308.7415;30.2146;329.9056;8.1314E-5;1.1E-6;0;Orbcomm
14.38877503;0.0006136;45.017;308.4119;30.5908;329.5297;8.1509E-5;1.1E-6;0;Orbcomm
14.3887801;0.000606;45.0169;303.7978;35.9998;324.1258;8.1047E-5;1.09E-6;0;Orbcomm
14.38878063;0.0006056;45.0169;303.4683;36.4246;323.7014;8.1764E-5;1.11E-6;0;Orbcomm
14.38878439;0.0005996;45.0169;300.1724;40.346;319.7832;8.2917E-5;1.15E-6;0;Orbcomm
14.38878894;0.0005948;45.0168;295.8879;45.3514;314.7818;8.3804E-5;1.17E-6;0;Orbcomm
14.38879124;0.0005926;45.0168;294.2402;47.47;312.6649;8.5318E-5;1.22E-6;0;Orbcomm
14.3887968;0.0005835;45.0167;289.2965;53.6591;306.4796;8.2847E-5;1.15E-6;0;Orbcomm
14.38880012;0.0005802;45.0167;286.0006;57.5771;302.5639;7.9496E-5;1.04E-6;0;Orbcomm
14.3888042;0.0005758;45.0166;282.0456;62.4086;297.7347;7.6685E-5;9.5E-7;0;Orbcomm
14.38880526;0.0005726;45.0166;280.0683;65.0685;295.0758;7.175E-5;8.0E-7;0;Orbcomm
14.38880785;0.0005698;45.0166;277.1021;68.7;291.4457;7.0529E-5;7.6E-7;0;Orbcomm
14.38880886;0.0005676;45.0166;275.1247;71.261;288.8854;6.7765E-5;6.8E-7;0;Orbcomm
14.38881192;0.0005639;45.0165;270.5105;77.0987;283.0491;6.6993E-5;6.5E-7;0;Orbcomm
14.38881385;0.0005617;45.0165;267.5442;80.8474;279.301;6.5145E-5;6.0E-7;0;Orbcomm
14.38881721;0.0005601;45.0165;262.9301;86.6868;273.4621;6.3521E-5;5.4E-7;0;Orbcomm
14.38881745;0.00056;45.0165;262.6005;87.1944;272.9545;6.3248E-5;5.4E-7;0;Orbcomm
14.38882126;0.0005584;45.0165;258.316;92.4756;267.6732;6.3505E-5;5.4E-7;0;Orbcomm
14.38882475;0.000558;45.0165;254.0315;97.8598;262.2885;6.265E-5;5.2E-7;0;Orbcomm
14.38882541;0.0005577;45.0166;253.3723;98.8107;261.3373;6.1978E-5;5.0E-7;0;Orbcomm
14.3888298;0.0005583;45.0166;248.7582;104.7231;255.4237;6.4532E-5;5.8E-7;0;Orbcomm
14.38883156;0.0005579;45.0166;247.1105;106.7853;253.3608;6.6421E-5;6.3E-7;0;Orbcomm
14.38883429;0.0005585;45.0167;243.8147;111.019;249.1256;6.6274E-5;6.3E-7;0;Orbcomm
14.38883616;0.0005596;45.0166;242.1669;113.0757;247.0682;6.8393E-5;7.0E-7;0;Orbcomm
14.38884006;0.0005622;45.0166;237.5529;118.9289;241.2124;6.609E-5;6.2E-7;0;Orbcomm
14.38884373;0.0005655;45.0165;232.9389;124.7477;235.3905;6.1168E-5;4.7E-7;0;Orbcomm
14.38884496;0.0005661;45.0166;231.2911;126.7335;233.4035;5.9131E-5;4.1E-7;0;Orbcomm
14.3888461;0.0005679;45.0165;229.6433;128.7538;231.3819;5.7413E-5;3.6E-7;0;Orbcomm
14.38884876;0.0005703;45.0165;226.3476;132.7647;227.3682;5.7823E-5;3.7E-7;0;Orbcomm
14.38884955;0.0005724;45.0164;225.0293;134.3471;225.7847;5.6219E-5;3.2E-7;0;Orbcomm
14.38885359;0.0005765;45.0164;220.4153;139.9762;220.1513;6.1274E-5;4.8E-7;0;Orbcomm
14.38885379;0.000577;45.0164;220.0858;140.3774;219.7497;6.1639E-5;4.9E-7;0;Orbcomm
14.38885759;0.0005823;45.0163;215.4718;145.9106;214.2117;6.5484E-5;6.1E-7;0;Orbcomm
14.38886223;0.0005891;45.0162;210.5281;151.8137;208.3031;6.8952E-5;7.1E-7;0;Orbcomm
14.3888626;0.0005895;45.0162;210.1986;152.1807;207.9358;6.9598E-5;7.3E-7;0;Orbcomm
14.38886332;0.0005904;45.0161;209.5394;152.9401;207.1756;6.9809E-5;7.4E-7;0;Orbcomm
14.38886854;0.0005958;45.0161;204.9255;158.3147;201.7955;7.2297E-5;8.2E-7;0;Orbcomm
14.388873;0.0006021;45.0161;200.3115;163.6488;196.4555;7.1442E-5;7.9E-7;0;Orbcomm
14.38887553;0.000606;45.0161;197.6748;166.6884;193.4126;7.2067E-5;8.1E-7;0;Orbcomm
14.38887705;0.0006096;45.0161;195.368;169.2798;190.8182;6.9266E-5;7.2E-7;0;Orbcomm
14.38887947;0.0006155;45.0161;191.7426;173.3265;186.7667;6.6375E-5;6.3E-7;0;Orbcomm
14.38888324;0.0006229;45.0159;186.4695;179.1261;180.96;6.16E-5;4.9E-7;0;Orbcomm
14.38888728;0.0006303;45.0157;181.5259;184.4891;175.5902;5.7293E-5;3.5E-7;0;Orbcomm
14.38889172;0.000637;45.0156;177.2414;189.106;170.9674;5.8691E-5;4.0E-7;0;Orbcomm
14.38889208;0.0006373;45.0156;176.9119;189.4653;170.6077;5.8926E-5;4.0E-7;0;Orbcomm
14.38889556;0.0006417;45.0156;174.2751;192.3345;167.7347;6.4822E-5;5.9E-7;0;Orbcomm
14.3888992;0.0006441;45.0155;172.2977;194.3372;165.7295;7.3653E-5;8.6E-7;0;Orbcomm
14.38890124;0.0006487;45.0155;169.3314;197.4984;162.5642;7.0665E-5;7.7E-7;0;Orbcomm
14.38890377;0.0006505;45.0154;167.354;199.5553;160.5047;7.5129E-5;9.1E-7;0;Orbcomm
14.38890716;0.0006552;45.0154;164.3876;202.6132;157.4429;7.9762E-5;1.05E-6;0;Orbcomm
14.38891205;0.0006573;45.0154;162.7398;204.2666;155.7874;9.7632E-5;1.61E-6;0;Orbcomm
14.38891387;0.0006633;45.0154;158.4552;208.6053;151.4433;8.2406E-5;1.13E-6;0;Orbcomm
14.38891425;0.0006638;45.0154;158.1256;208.9294;151.1188;8.2039E-5;1.12E-6;0;Orbcomm
14.38891899;0.0006697;45.0154;153.5114;213.5457;146.4968;7.7618E-5;9.9E-7;0;Orbcomm
14.38892374;0.0006752;45.0155;148.8973;218.1402;141.897;7.32E-5;8.5E-7;0;Orbcomm
14.3889271;0.0006798;45.0155;145.6014;221.404;138.6294;7.0697E-5;7.7E-7;0;Orbcomm
14.38892881;0.0006806;45.0156;144.2831;222.6823;137.3498;7.1688E-5;8.0E-7;0;Orbcomm
14.38893349;0.0006852;45.0156;139.669;227.1846;132.8428;7.0356E-5;7.6E-7;0;Orbcomm
14.38893378;0.0006855;45.0156;139.3394;227.5163;132.5107;6.9853E-5;7.4E-7;0;Orbcomm
14.38893831;0.0006904;45.0156;134.7252;231.9108;128.1118;6.7897E-5;6.8E-7;0;Orbcomm
14.38894398;0.0006949;45.0157;127.8039;238.5382;121.4788;5.9706E-5;4.3E-7;0;Orbcomm
14.38894498;0.0006966;45.0158;126.8151;239.3928;120.6234;5.8419E-5;3.9E-7;0;Orbcomm
14.38894601;0.0006969;45.0158;125.4969;240.6473;119.368;5.7258E-5;3.5E-7;0;Orbcomm
14.38894883;0.0006981;45.0159;121.2123;244.7226;115.2899;5.3987E-5;2.5E-7;0;Orbcomm
14.38894903;0.0006981;45.0159;120.8827;245.0346;114.9777;5.3653E-5;2.4E-7;0;Orbcomm
14.38895229;0.0006987;45.016;115.939;249.6921;110.3177;5.4018E-5;2.5E-7;0;Orbcomm
14.38895829;0.0007001;45.0163;109.0177;256.0967;103.9103;6.2176E-5;5.1E-7;0;Orbcomm
14.38896289;0.0007002;45.0165;104.4036;260.3506;99.6552;6.4944E-5;5.9E-7;0;Orbcomm
14.38896407;0.0006999;45.0166;103.0854;261.5548;98.4507;6.4194E-5;5.7E-7;0;Orbcomm
14.38896494;0.0006995;45.0166;102.0967;262.4557;97.5497;6.3561E-5;5.5E-7;0;Orbcomm
14.38896858;0.0006985;45.0168;97.4827;266.7356;93.2694;6.0004E-5;4.4E-7;0;Orbcomm
14.38897032;0.0006982;45.0169;95.1757;268.8801;91.1248;5.8698E-5;4.0E-7;0;Orbcomm
14.38897281;0.0006964;45.0171;91.2209;272.5337;87.4715;5.5027E-5;2.8E-7;0;Orbcomm
14.38897672;0.0006926;45.0172;85.2886;277.9583;82.0479;5.3621E-5;2.4E-7;0;Orbcomm
